NORAD_CAT_ID,OBJECT_NAME,OBJECT_TYPE,EPOCH,MEAN_MOTION,ECCENTRICITY,INCLINATION,RA_OF_ASC_NODE,ARG_OF_PERICENTER,MEAN_ANOMALY,BSTAR,MEAN_MOTION_DOT,MEAN_MOTION_DDOT,TLE_LINE0,TLE_LINE1,TLE_LINE2,SEMIMAJOR_AXIS,PERIOD,APOGEE,PERIGEE,DECAYED
51810.0,STARLINK-3613,PAYLOAD,2024-01-16 20:16:02,15.08838111,0.000141,53.2166,243.6713,91.4726,268.6428,-5.7455e-05,-1.202e-05,0.0,0 STARLINK-3613,1 51810U 22017AU  24016.84446957 -.00001202  00000-0 -57455-4 0  9994,2 51810  53.2166 243.6713 0001410  91.4726 268.6428 15.08838111105896,6917.886,95.438,540.727,538.776,0.0
51810.0,STARLINK-3613,PAYLOAD,2024-01-16 21:51:25,15.08840447,0.000144,53.2159,243.376,82.3227,277.7929,-4.7768e-05,-1.048e-05,0.0,0 STARLINK-3613,1 51810U 22017AU  24016.91070824 -.00001048  00000-0 -47768-4 0  9992,2 51810  53.2159 243.3760 0001440  82.3227 277.7929 15.08840447106023,6917.879,95.438,540.74,538.748,0.0
51810.0,STARLINK-3613,PAYLOAD,2024-01-17 20:06:49,15.08831332,0.0001193,53.2153,239.2136,86.9194,273.1935,-1.5356e-05,-5.32e-06,0.0,0 STARLINK-3613,1 51810U 22017AU  24017.83807682 -.00000532  00000-0 -15356-4 0  9999,2 51810  53.2153 239.2136 0001193  86.9194 273.1935 15.08831332106161,6917.907,95.438,540.597,538.947,0.0
51810.0,STARLINK-3613,PAYLOAD,2024-01-18 13:36:04,15.08799731,0.0001603,53.215,235.9404,113.1478,246.9683,0.00051983,7.986e-05,0.0,0 STARLINK-3613,1 51810U 22017AU  24018.56671482  .00007986  00000-0  51983-3 0  9990,2 51810  53.2150 235.9404 0001603 113.1478 246.9683 15.08799731106156,6918.003,95.44,540.977,538.76,0.0
51810.0,STARLINK-3613,PAYLOAD,2024-01-18 19:57:36,15.08843679,0.0001182,53.2152,234.7516,100.5008,259.6117,8.8583e-06,-1.47e-06,0.0,0 STARLINK-3613,1 51810U 22017AU  24018.83167201 -.00000147  00000-0  88583-5 0  9990,2 51810  53.2152 234.7516 0001182 100.5008 259.6117 15.08843679106312,6917.869,95.437,540.552,538.916,0.0
51810.0,STARLINK-3613,PAYLOAD,2024-01-19 00:43:45,15.08842057,0.0001268,53.2152,233.8591,104.7886,255.3247,7.7497e-05,9.46e-06,0.0,0 STARLINK-3613,1 51810U 22017AU  24019.03039069  .00000946  00000-0  77497-4 0  9990,2 51810  53.2152 233.8591 0001268 104.7886 255.3247 15.08842057106226,6917.874,95.437,540.616,538.862,0.0
51810.0,STARLINK-3613,PAYLOAD,2024-01-19 21:23:46,15.08842693,0.0001189,53.2157,229.993,92.2781,267.8347,0.00010691,1.414e-05,0.0,0 STARLINK-3613,1 51810U 22017AU  24019.89151089  .00001414  00000-0  10691-3 0  9994,2 51810  53.2157 229.9930 0001189  92.2781 267.8347 15.08842693106350,6917.872,95.437,540.56,538.915,0.0
51810.0,STARLINK-3613,PAYLOAD,2024-01-19 22:59:09,15.08844263,0.0001203,53.2157,229.6955,94.2233,265.8897,0.0001206,1.632e-05,0.0,0 STARLINK-3613,1 51810U 22017AU  24019.95774943  .00001632  00000-0  12060-3 0  9995,2 51810  53.2157 229.6955 0001203  94.2233 265.8897 15.08844263106482,6917.867,95.437,540.565,538.9,0.0
51810.0,STARLINK-3613,PAYLOAD,2024-01-20 13:17:38,15.08840608,0.0001718,53.2169,227.0226,85.6636,274.4552,2.5298e-05,1.15e-06,0.0,0 STARLINK-3613,1 51810U 22017AU  24020.55391602  .00000115  00000-0  25298-4 0  9993,2 51810  53.2169 227.0226 0001718  85.6636 274.4552 15.08840608106450,6917.879,95.438,540.932,538.555,0.0
51810.0,STARLINK-3613,PAYLOAD,2024-01-20 19:39:10,15.0884737,0.0001194,53.2157,225.8299,83.5156,276.5972,-8.905e-05,-1.705e-05,0.0,0 STARLINK-3613,1 51810U 22017AU  24020.81887427 -.00001705  00000-0 -89050-4 0  9991,2 51810  53.2157 225.8299 0001194  83.5156 276.5972 15.08847370106615,6917.858,95.437,540.549,538.897,0.0
51810.0,STARLINK-3613,PAYLOAD,2024-01-20 22:49:57,15.08841534,0.0001232,53.2158,225.235,86.0813,274.032,1.6189e-05,-3e-07,0.0,0 STARLINK-3613,1 51810U 22017AU  24020.95135469 -.00000030  00000-0  16189-4 0  9990,2 51810  53.2158 225.2350 0001232  86.0813 274.0320 15.08841534106514,6917.876,95.437,540.593,538.888,0.0
51810.0,STARLINK-3613,PAYLOAD,2024-01-21 19:29:57,15.08845637,0.0001311,53.2156,221.3699,77.2353,282.8785,7.0196e-05,8.3e-06,0.0,0 STARLINK-3613,1 51810U 22017AU  24021.81246963  .00000830  00000-0  70196-4 0  9993,2 51810  53.2156 221.3699 0001311  77.2353 282.8785 15.08845637106648,6917.863,95.437,540.635,538.821,0.0
51810.0,STARLINK-3613,PAYLOAD,2024-01-21 22:40:43,15.08847506,0.0001311,53.2156,220.7748,79.3744,280.7396,8.2833e-05,1.031e-05,0.0,0 STARLINK-3613,1 51810U 22017AU  24021.94494718  .00001031  00000-0  82833-4 0  9995,2 51810  53.2156 220.7748 0001311  79.3744 280.7396 15.08847506106780,6917.857,95.437,540.629,538.816,0.0
51810.0,STARLINK-3613,PAYLOAD,2024-01-22 19:20:44,15.08836372,0.0001272,53.2155,216.9084,88.8388,271.275,2.5978e-05,1.26e-06,0.0,0 STARLINK-3613,1 51810U 22017AU  24022.80607621  .00000126  00000-0  25978-4 0  9991,2 51810  53.2155 216.9084 0001272  88.8388 271.2750 15.08836372106917,6917.891,95.438,540.636,538.877,0.0
51810.0,STARLINK-3613,PAYLOAD,2024-01-23 03:17:40,15.08838504,0.0001278,53.2152,215.4214,87.8758,272.238,3.9025e-05,3.33e-06,0.0,0 STARLINK-3613,1 51810U 22017AU  24023.13727421  .00000333  00000-0  39025-4 0  9997,2 51810  53.2152 215.4214 0001278  87.8758 272.2380 15.08838504106840,6917.885,95.438,540.634,538.866,0.0
51810.0,STARLINK-3613,PAYLOAD,2024-01-23 16:00:45,15.08846229,0.0001306,53.2155,213.0421,85.3627,274.7514,2.5101e-05,1.12e-06,0.0,0 STARLINK-3613,1 51810U 22017AU  24023.66719079  .00000112  00000-0  25101-4 0  9990,2 51810  53.2155 213.0421 0001306  85.3627 274.7514 15.08846229107049,6917.861,95.437,540.63,538.823,0.0
51810.0,STARLINK-3613,PAYLOAD,2024-01-23 20:46:54,15.08846604,0.00013,53.2157,212.15,85.0849,275.0292,3.8137e-05,3.19e-06,0.0,0 STARLINK-3613,1 51810U 22017AU  24023.86590869  .00000319  00000-0  38137-4 0  9998,2 51810  53.2157 212.1500 0001300  85.0849 275.0292 15.08846604106959,6917.86,95.437,540.625,538.826,0.0
51810.0,STARLINK-3613,PAYLOAD,2024-01-24 11:05:23,15.08833848,0.00013,53.2161,209.4744,88.478,271.6361,3.2452e-05,2.29e-06,0.0,0 STARLINK-3613,1 51810U 22017AU  24024.46207726  .00000229  00000-0  32452-4 0  9996,2 51810  53.2161 209.4744 0001300  88.4780 271.6361 15.08833848107163,6917.899,95.438,540.664,538.865,0.0
51810.0,STARLINK-3613,PAYLOAD,2024-01-24 12:40:46,15.08834196,0.000129,53.2163,209.1773,85.9429,274.1711,2.697e-05,1.41e-06,0.0,0 STARLINK-3613,1 51810U 22017AU  24024.52831766  .00000141  00000-0  26970-4 0  9991,2 51810  53.2163 209.1773 0001290  85.9429 274.1711 15.08834196107056,6917.898,95.438,540.656,538.871,0.0
51810.0,STARLINK-3613,PAYLOAD,2024-01-24 20:37:42,15.08837438,0.0001334,53.2161,207.6908,83.7613,276.3531,4.7775e-05,4.72e-06,0.0,0 STARLINK-3613,1 51810U 22017AU  24024.85951517  .00000472  00000-0  47775-4 0  9997,2 51810  53.2161 207.6908 0001334  83.7613 276.3531 15.08837438107109,6917.888,95.438,540.676,538.83,0.0
51810.0,STARLINK-3613,PAYLOAD,2024-01-24 22:13:05,15.08838882,0.0001287,53.216,207.3934,83.45,276.6638,6.0822e-05,6.8e-06,0.0,0 STARLINK-3613,1 51810U 22017AU  24024.92575381  .00000680  00000-0  60822-4 0  9995,2 51810  53.2160 207.3934 0001287  83.4500 276.6638 15.08838882107119,6917.884,95.438,540.639,538.858,0.0
51810.0,STARLINK-3613,PAYLOAD,2024-01-25 17:17:43,15.0883835,0.0001294,53.2159,203.8249,84.6554,275.4586,-4.4864e-07,-2.95e-06,0.0,0 STARLINK-3613,1 51810U 22017AU  24025.72063690 -.00000295  00000-0 -44864-6 0  9993,2 51810  53.2159 203.8249 0001294  84.6554 275.4586 15.08838350107239,6917.885,95.438,540.646,538.855,0.0
51810.0,STARLINK-3613,PAYLOAD,2024-01-26 18:43:52,15.08840716,0.0001257,53.2157,199.0669,83.1276,276.9859,6.9338e-05,8.16e-06,0.0,0 STARLINK-3613,1 51810U 22017AU  24026.78047416  .00000816  00000-0  69338-4 0  9996,2 51810  53.2157 199.0669 0001257  83.1276 276.9859 15.08840716107512,6917.878,95.438,540.613,538.874,0.0
51810.0,STARLINK-3613,PAYLOAD,2024-01-27 20:10:03,15.08841154,0.0001317,53.2166,194.306,80.5609,279.5532,4.9822e-05,5.05e-06,0.0,0 STARLINK-3613,1 51810U 22017AU  24027.84031627  .00000505  00000-0  49822-4 0  9992,2 51810  53.2166 194.3060 0001317  80.5609 279.5532 15.08841154107674,6917.877,95.437,540.653,538.831,0.0
51810.0,STARLINK-3613,PAYLOAD,2024-01-28 18:25:28,15.0879701,0.0001792,53.2184,190.1367,72.658,287.4608,0.00054305,8.355e-05,0.0,0 STARLINK-3613,1 51810U 22017AU  24028.76768813  .00008355  00000-0  54305-3 0  9990,2 51810  53.2184 190.1367 0001792  72.6580 287.4608 15.08797010107814,6918.012,95.44,541.117,538.637,0.0
51810.0,STARLINK-3613,PAYLOAD,2024-01-28 20:00:51,15.08799218,0.0001733,53.2182,189.8412,76.2815,283.837,0.00052117,8.007e-05,0.0,0 STARLINK-3613,1 51810U 22017AU  24028.83392881  .00008007  00000-0  52117-3 0  9999,2 51810  53.2182 189.8412 0001733  76.2815 283.8370 15.08799218107700,6918.005,95.44,541.069,538.671,0.0
51810.0,STARLINK-3613,PAYLOAD,2024-01-29 10:19:18,15.08839782,0.000122,53.2167,187.1689,96.6015,263.5116,4.5659e-05,4.39e-06,0.0,0 STARLINK-3613,1 51810U 22017AU  24029.43007856  .00000439  00000-0  45659-4 0  9996,2 51810  53.2167 187.1689 0001220  96.6015 263.5116 15.08839782107916,6917.881,95.438,540.59,538.902,0.0
51810.0,STARLINK-3613,PAYLOAD,2024-01-30 14:56:15,15.08841476,0.0001197,53.2166,181.8187,85.2244,274.8885,1.8439e-05,6e-08,0.0,0 STARLINK-3613,1 51810U 22017AU  24030.62239871  .00000006  00000-0  18439-4 0  9999,2 51810  53.2166 181.8187 0001197  85.2244 274.8885 15.08841476107977,6917.876,95.437,540.569,538.913,0.0
51810.0,STARLINK-3613,PAYLOAD,2024-01-30 16:31:38,15.08840597,0.0001177,53.2164,181.5216,85.7834,274.3293,9.4712e-06,-1.37e-06,0.0,0 STARLINK-3613,1 51810U 22017AU  24030.68863940 -.00000137  00000-0  94712-5 0  9990,2 51810  53.2164 181.5216 0001177  85.7834 274.3293 15.08840597108100,6917.879,95.438,540.558,538.929,0.0
51810.0,STARLINK-3613,PAYLOAD,2024-01-31 10:00:53,15.08836118,0.0001251,53.2169,178.2517,84.2077,275.9058,-1.6398e-05,-5.49e-06,0.0,0 STARLINK-3613,1 51810U 22017AU  24031.41728385 -.00000549  00000-0 -16398-4 0  9996,2 51810  53.2169 178.2517 0001251  84.2077 275.9058 15.08836118108210,6917.892,95.438,540.623,538.892,0.0
